SL-3 R/B                
1 19046U 88032B   18059.89682536 -.00000538  00000-0 -35572-4 0  9995
2 19046  97.4950 103.8977 0037045 176.1013 184.0508 15.02383966610892
SL-16 R/B               
1 19120U 88039B   18059.65591590 -.00000186  00000-0 -65947-4 0  9996
2 19120  71.0153 143.0150 0021077 160.8558 199.3364 14.19182333542771
COSMOS 1953             
1 19210U 88050A   18059.93341202 -.00000101  00000-0 -91061-5 0  9997
2 19210  82.5190 144.4242 0015015 104.8683 255.4208 15.05508938595338
SL-8 R/B                
1 19257U 88053B   18059.69694521  .00000083  00000-0  36453-4 0  9999
2 19257  74.0477 104.9647 0021732 290.9165 182.6897 14.37392947555626
COSMOS 1975             
1 19573U 88093A   18059.63237657  .00000484  00000-0  32536-4 0  9994
2 19573  82.5176  97.3368 0015406 139.8805 220.3562 15.04401719577227
SL-14 R/B               
1 19574U 88093B   18059.97317112  .00000084  00000-0  73692-5 0  9992
2 19574  82.5294 264.9786 0021438 354.1500 117.4641 14.83255185566425
SL-16 R/B               
1 19650U 88102B   18059.90827699  .00000140  00000-0  95612-4 0  9995
2 19650  70.9981 195.2785 0013590 160.7555 199.4084 14.15765642512050
INTERCOSMOS 24          
1 20261U 89080A   18060.01088244  .00000267  00000-0  77857-4 0  9991
2 20261  82.5977 203.5731 1203566 224.4199 125.4039 12.55960864298207
SL-14 R/B               
1 20262U 89080C   18059.94534363  .00000072  00000-0  14846-4 0  9993
2 20262  82.5891 251.6397 1237503  31.2686 335.6334 12.48886345294198
DELTA 1 R/B             
1 20323U 89089B   18059.93518930  .00000035  00000-0  18285-4 0  9991
2 20323  97.1232 330.5328 0071718 354.4695   5.5702 14.48244441471355
DELTA 2 R/B(1)          
1 20453U 90008B   18059.73386667  .00001217  00000-0  72158-4 0  9998
2 20453  35.6240 162.0954 0286086 143.4147 218.6476 14.83897876486325
COSMOS 2058             
1 20465U 90010A   18059.92322868  .00000278  00000-0  21328-4 0  9997
2 20465  82.4920   0.9802 0016344 145.0016 215.2285 14.97678854502650
SL-14 R/B               
1 20466U 90010B   18059.72598094  .00000084  00000-0  76846-5 0  9993
2 20466  82.5041 132.5806 0019723 212.2582 147.7427 14.81314964515474
SL-14 R/B               
1 20511U 90018B   18059.63954670  .00000076  00000-0  70387-5 0  9993
2 20511  82.5202  75.2908 0017358 357.4227 141.8224 14.79972641488894
HST                     
1 20580U 90037B   18060.24178851  .00000469  00000-0  17809-4 0  9993
2 20580  28.4695 108.6597 0002937  61.9018 356.1770 15.08987536329143
SL-16 R/B               
1 20625U 90046B   18060.17308136 -.00000287  00000-0 -12446-3 0  9997
2 20625  71.0010 329.7746 0011851  74.0870 286.1558 14.14626857434185
COSMOS 2084             
1 20663U 90055A   18059.57424643 -.00000000  00000-0  18099-4 0  9996
2 20663  62.7917  92.2700 0131452 115.1844 246.2948 14.91779609498044
SL-6 R/B(2)             
1 20666U 90055D   18059.91410065 -.00000044  00000-0  14421-4 0  9993
2 20666  62.7860   9.3163 0109582 135.2446 225.7555 14.92088574500018
SL-8 R/B                
1 20775U 90078B   18059.87799009  .00001144  00000-0  56691-4 0  9998
2 20775  82.9303 197.5822 0582811 270.8012  82.6476 14.31715468385499
SL-8 R/B                
1 21088U 91006B   18059.92108010 -.00000002  00000-0 -17018-4 0  9994
2 21088  82.9445 189.3767 0021617 323.8983 156.3936 13.77074993360661
OKEAN-3                 
1 21397U 91039A   18059.88991355  .00000212  00000-0  18015-4 0  9999
2 21397  82.5192 254.5391 0019414  98.2190 262.1232 14.92629575427010
COSMOS 2151             
1 21422U 91042A   18059.88124017  .00000154  00000-0  12674-4 0  9995
2 21422  82.5030   2.1561 0014855 151.7058 208.4972 14.91927641446770
SL-14 R/B               
1 21423U 91042B   18059.62073045  .00000081  00000-0  75992-5 0  9994
2 21423  82.4911  81.7850 0018855 127.5453 232.7476 14.79724117440509
ERS-1                   
1 21574U 91050A   18059.87982155  .00000001  00000-0  15041-4 0  9998
2 21574  98.4925   8.3843 0031813 269.0088  90.7454 14.37631946394462
ARIANE 40 R/B           
1 21610U 91050F   18060.19247199 -.00000006  00000-0  12062-4 0  9994
2 21610  98.5694 122.8400 0002178 242.8788 180.9706 14.40828632397128
INTERCOSMOS 25          
1 21819U 91086A   18059.91355919  .00000146  00000-0  29592-4 0  9992
2 21819  82.5768 268.8722 1518699 260.6406  82.0422 12.04783062143174
SL-14 R/B               
1 21820U 91086B   18059.81587476  .00000179  00000-0  27782-4 0  9993
2 21820  82.5654 327.0941 1577024  98.8479 279.3746 11.93364620137398
SL-8 R/B                
1 21876U 92008B   18059.95993076  .00000019  00000-0  37692-5 0  9996
2 21876  82.9245 286.3661 0035641  39.0679  88.5623 13.75620483306450
SL-8 R/B                
1 21938U 92020B   18059.82022522  .00000039  00000-0  24573-4 0  9999
2 21938  82.9332 169.9410 0029131 193.5614 282.9777 13.75267966298268
SL-16 R/B               
1 22220U 92076B   18059.97384931  .00000207  00000-0  12808-3 0  9990
2 22220  70.9981 238.7181 0014906 245.4051 225.4785 14.16428230306806
SL-16 R/B               
1 22285U 92093B   18059.91676678 -.00000315  00000-0 -13808-3 0  9999
2 22285  71.0223  33.7218 0001807 105.6309 254.5013 14.15018472298574
COSMOS 2228             
1 22286U 92094A   18060.23096897  .00000170  00000-0  15744-4 0  9996
2 22286  82.5210 131.6994 0020841 352.6044   7.4862 14.87908567360711
SL-16 R/B               
1 22566U 93016B   18059.89988592  .00000161  00000-0  10776-3 0  9993
2 22566  71.0057 248.0616 0008189 106.8937 253.3084 14.14959500287572
COSMOS 2242             
1 22626U 93024A   18060.39900900  .00000156  00000-0  14340-4 0  9999
2 22626  82.5244 159.3223 0018563 351.8272   8.2640 14.87773270344390
SL-16 R/B               
1 22803U 93059B   18059.44613970 -.00000210  00000-0 -80858-4 0  9996
2 22803  70.9893  69.4370 0017659 347.4195  12.6485 14.16785981264326
ARIANE 40 R/B           
1 22830U 93061H   18059.94640946 -.00000028  00000-0  69732-5 0  9992
2 22830  98.8687  86.0080 0009881 256.6052 103.4029 14.31413810274724
COSMOS 2278             
1 23087U 94023A   18059.90160865 -.00000327  00000-0 -14796-3 0  9990
2 23087  71.0533 182.4308 0009500 198.7165 161.3609 14.13759853230533
SL-16 R/B               
1 23088U 94023B   18060.23126553  .00000156  00000-0  10579-3 0  9998
2 23088  70.9983 102.5582 0001363  44.2458 315.8773 14.14661735231897
SL-16 R/B               
1 23343U 94074B   18059.75136843 -.00000007  00000-0  65251-5 0  9991
2 23343  98.1203 103.9030 0006321 340.9645 135.6181 14.76724465254696
SL-16 R/B               
1 23405U 94077B   18059.92546622 -.00000323  00000-0 -14134-3 0  9996
2 23405  70.9839  35.6037 0005102 281.5469  78.5081 14.15197683201589
ERS-2                   
1 23560U 95021A   18059.91309865  .00000983  00000-0  47581-4 0  9996
2 23560  98.5498  91.9568 0004382 138.9492 221.2071 15.21520173214382
ARIANE 40+ R/B          
1 23561U 95021B   18060.05210557  .00000026  00000-0  23877-4 0  9993
2 23561  98.7962  72.2162 0006350 211.9651 212.6888 14.37859901198166
SL-16 R/B               
1 23705U 95058B   18059.83352809 -.00000253  00000-0 -10565-3 0  9997
2 23705  71.0208 210.5708 0014874 267.0663  92.8757 14.15109923153499
SL-16 R/B               
1 24298U 96051B   18059.93770053 -.00000227  00000-0 -96402-4 0  9991
2 24298  70.8385 240.9801 0015896 169.5380 190.6075 14.12462582107813
ORBVIEW 2 (SEASTAR)     
1 24883U 97037A   18059.92438795  .00000048  00000-0  33091-4 0  9993
2 24883  98.5520 170.3959 0003391  77.9582 282.1982 14.33438861 88430
SL-16 R/B               
1 25400U 98043G   18060.19721426 -.00000020  00000-0  96249-5 0  9990
2 25400  98.5222   5.6356 0008697 264.1270  95.8918 14.25429878 21685
SL-16 R/B               
1 25407U 98045B   18059.90841291  .00000261  00000-0  15702-3 0  9998
2 25407  71.0102 221.9343 0008068 191.1247 168.9699 14.15773623 12259
ISS (ZARYA)             
1 25544U 98067A   18059.87764904  .00001891  00000-0  35750-4 0  9991
2 25544  51.6406 198.6608 0003001 139.2650 358.3098 15.54165571101673
SL-8 R/B                
1 25723U 99022C   18059.86968431  .00007527  00000-0  10391-3 0  9997
2 25723  48.4135 234.6774 0009684 199.2046 160.8537 15.58107200 46152
CZ-4B R/B               
1 25732U 99025C   18060.46040311 -.00000016  00000-0  14410-4 0  9990
2 25732  98.9964  70.3804 0038393  79.6388  79.7786 14.17645395973081
OKEAN-O                 
1 25860U 99039A   18059.91593320  .00000030  00000-0  11973-4 0  9994
2 25860  98.2106  53.6536 0001714  74.1456 285.9941 14.76533224  1621
SL-16 R/B               
1 25861U 99039B   18059.94876257  .00000027  00000-0  11191-4 0  9999
2 25861  98.1404  38.4953 0015215 340.2683  81.0607 14.78463824  3576
TERRA                   
1 25994U 99068A   18060.16628609  .00000196  00000-0  53499-4 0  9994
2 25994  98.2140 136.5560 0001100  92.0482 268.0861 14.57107354968098
ENVISAT                 
1 27386U 02009A   18060.29773982 -.00000024  00000-0  55928-5 0  9990
2 27386  98.1984  99.3667 0001273  90.9215 269.2120 14.37916042838026
IDEFIX & ARIANE 42P R/B 
1 27422U 02021B   18059.52410693 -.00000047  00000-0 -25464-5 0  9994
2 27422  98.2483  50.8236 0011863 191.7257 168.3652 14.29259752823299
AQUA                    
1 27424U 02022A   18059.92498067  .00000069  00000-0  25475-4 0  9995
2 27424  98.2326   2.7350 0002361  59.1016  12.3792 14.57103477841615
CZ-4B R/B               
1 27432U 02024C   18059.95164444 -.00000026  00000-0  10116-4 0  9998
2 27432  99.0228  40.4274 0051005  27.3208  33.7738 14.14059478815002
MIDORI II (ADEOS-II)    
1 27597U 02056A   18059.90518371  .00000023  00000-0  26604-4 0  9997
2 27597  98.4074  24.0540 0000615  27.3683 332.7530 14.27336666792049
H-2A R/B                
1 27601U 02056E   18059.80986024  .00000043  00000-0  31219-4 0  9996
2 27601  98.3426 123.2998 0071060 253.8710 215.1153 14.31826410794530
